ONEWEB-0205             
1 48226U 21031S   25260.78831884 -.00000188  00000+0 -54119-3 0  9992
2 48226  87.9082 343.9323 0002044 104.3053 255.8304 13.14503792212480
ONEWEB-0206             
1 48227U 21031T   25260.76136562  .00000204  00000+0  51520-3 0  9992
2 48227  87.9089 343.9209 0001968 100.6612 259.4740 13.14504066212439
ONEWEB-0182             
1 48228U 21031U   25260.75661166  .00000255  00000+0  65398-3 0  9999
2 48228  87.9080 343.9647 0002075  96.2678 263.8688 13.14503921212641
ONEWEB-0186             
1 48229U 21031V   25260.76770898  .00000185  00000+0  46456-3 0  9990
2 48229  87.9091 343.9258 0001935 103.0011 257.1335 13.14504086212596
ONEWEB-0181             
1 48230U 21031W   25260.74550926  .00000005  00000+0 -20343-4 0  9998
2 48230  87.9071 343.9999 0001869 106.3509 253.7826 13.14503362212449
ONEWEB-0188             
1 48231U 21031X   25260.78355743 -.00000091  00000+0 -27880-3 0  9991
2 48231  87.9085 343.9855 0001921 100.4147 259.7199 13.14503970212352
ONEWEB-0220             
1 48232U 21031Y   25260.74709547  .00000052  00000+0  10576-3 0  9992
2 48232  87.9085 343.9313 0002115 103.6841 256.4525 13.14503395212611
ONEWEB-0165             
1 48233U 21031Z   25260.77563364  .00000053  00000+0  10804-3 0  9996
2 48233  87.9069 343.9656 0001983 105.6006 254.5342 13.14502417212576
